GOMX-1                  
1 39430U 13066Q   26158.85703958  .00002697  00000+0  40744-3 0  9997
2 39430  97.6491 359.9082 0130112 107.1807 254.3691 14.69426675668544
CUBEBUG-2 (LO-74)       
1 39440U 13066AA  26158.75189183  .00005333  00000+0  49259-3 0  9995
2 39440  97.8907 107.6906 0059310  59.6684 301.0383 14.93689124675583
NEE-02 KRYSAOR          
1 39441U 13066AB  26158.78596263  .00002725  00000+0  30113-3 0  9991
2 39441  97.8886  98.0684 0067684 100.2958 260.5898 14.86579564674808
FUNCUBE-1 (AO-73)       
1 39444U 13066AE  26158.44422611  .00006890  00000+0  42956-3 0  9997
2 39444  97.8276 129.6877 0034678 234.9588 124.8385 15.09375076678197
UWE-3                   
1 39446U 13066AG  26157.65461373  .00005074  00000+0  43622-3 0  9993
2 39446  97.8693 113.6587 0049030 356.7161   3.3731 14.96941234676005
SMDC ONE 2.4            
1 39469U 13072H   26158.45475539  .00010173  00000+0  39312-3 0  9990
2 39469 120.4937 314.5128 0143890   8.6329 351.7177 15.17999672116359
COSMOS 2488 (RODNIK-S 7)
1 39483U 13076A   26158.86129197  .00000030  00000+0  14742-3 0  9992
2 39483  82.4832 174.5055 0020721 114.4990 245.8253 12.42905534564732
COSMOS 2489 (RODNIK-S 8)
1 39484U 13076B   26158.83629542 -.00000014  00000+0 -17341-3 0  9991
2 39484  82.4869 175.8968 0022554 114.6508 245.6924 12.42879299564789
COSMOS 2490 (RODNIK-S 9)
1 39485U 13076C   26158.80817005  .00000026  00000+0  11328-3 0  9992
2 39485  82.4815 173.9858 0022503 129.6535 230.6534 12.42877768564711
KAZEOSAT 1              
1 39731U 14024A   26158.79352791  .00000173  00000+0  65720-4 0  9993
2 39731  98.3201 231.4740 0001493  74.2100 285.9255 14.42076396637206
COSMOS 2496 (RODNIK-S *)
1 39761U 14028A   26158.84621036  .00000102  00000+0  66541-3 0  9990
2 39761  82.4446 114.5818 0021225  98.0876 262.2613 12.42878478546350
COSMOS 2497 (RODNIK-S *)
1 39762U 14028B   26158.90210661  .00000070  00000+0  43482-3 0  9999
2 39762  82.4494 116.2329 0021822  93.2432 267.1145 12.42893946546360
COSMOS 2498 (RODNIK-S *)
1 39763U 14028C   26158.79985976  .00000101  00000+0  65804-3 0  9992
2 39763  82.4454 114.7880 0022530  93.1224 267.2434 12.42980129546381
HODOYOSHI-4             
1 40011U 14033B   26158.82212786  .00001845  00000+0  20517-3 0  9990
2 40011  97.5458 344.0971 0023303 340.7794  19.2542 14.88110178647413
UNISAT-6                
1 40012U 14033C   26158.38412225  .00003749  00000+0  40442-3 0  9996
2 40012  97.7873 311.2702 0046464 100.6516 259.9939 14.88194150644707
DEIMOS-2                
1 40013U 14033D   26158.80471567  .00002426  00000+0  23448-3 0  9996
2 40013  97.5836  33.6227 0002050  60.7999 299.3426 14.93702458636326
BUGSAT-1 (TITA)         
1 40014U 14033E   26158.85877994  .00005579  00000+0  29601-3 0  9995
2 40014  98.0419 250.8627 0027374 210.5403 149.4235 15.15484612654426
SAUDISAT 4              
1 40016U 14033G   26158.65066473  .00000907  00000+0  12584-3 0  9999
2 40016  97.7573 305.1161 0046205 104.0362 256.5993 14.79532151644664
APRIZESAT 9             
1 40018U 14033J   26158.63729010  .00000788  00000+0  12323-3 0  9990
2 40018  97.9049 292.0700 0065063 230.2221 129.3247 14.74202452642152
BRITE-CA1 (TORONTO)     
1 40020U 14033L   26158.32169916  .00000858  00000+0  13667-3 0  9992
2 40020  97.9728 287.4322 0077511 309.1415  50.2921 14.72663858640764
DUCHIFAT-1              
1 40021U 14033M   26158.67842588  .00098159  00000+0  10840-2 0  9994
2 40021  98.0456 216.5179 0004587 131.8907 228.2741 15.62727135654263
NANOSATC-BR1            
1 40024U 14033Q   26158.59969182  .00017112  00000+0  57076-3 0  9991
2 40024  98.0730 190.1402 0003389 190.3246 169.7924 15.31152057652511
